OBJECT_NAME,OBJECT_ID,EPOCH,MEAN_MOTION,ECCENTRICITY,INCLINATION,RA_OF_ASC_NODE,ARG_OF_PERICENTER,MEAN_ANOMALY,EPHEMERIS_TYPE,CLASSIFICATION_TYPE,NORAD_CAT_ID,ELEMENT_SET_NO,REV_AT_EPOCH,BSTAR,MEAN_MOTION_DOT,MEAN_MOTION_DDOT
IONOSFERA-M 2,2024-199B,2026-07-05T05:33:18.253728,14.22761220,.00003513,98.7149,59.1217,66.7847,293.3368,0,U,61736,999,13339,.57637033E-4,.85E-6,0
PRSC-EO1,2025-012A,2026-07-05T07:45:23.046624,15.17694349,.00060321,97.4215,258.4284,179.3316,180.7927,0,U,62725,999,8094,.50194201E-3,.10061E-3,0
BIOMASS,2025-090A,2026-07-04T23:14:06.988416,14.67534765,.00013658,98.0754,13.0220,89.8811,270.2550,0,U,63772,999,6329,.26824063E-3,.1473E-4,0
GOSAT-GW (IBUKI GW),2025-141A,2026-07-05T06:11:51.466848,14.67552080,.0001412,98.0567,123.2817,84.1673,275.9693,0,U,64694,999,5449,.26440556E-3,.1452E-4,0
IONOSFERA-M 3,2025-155A,2026-07-05T06:22:03.686016,14.21489599,.00019519,98.6034,147.7160,127.4569,232.6787,0,U,64876,999,4897,.46462875E-4,.59E-6,0
IONOSFERA-M 4,2025-155B,2026-07-05T07:12:11.345184,14.21492044,.00016326,98.6039,147.6671,109.2538,250.8817,0,U,64877,999,4897,.53926679E-4,.75E-6,0
MICROCARB,2025-156A,2026-07-04T16:20:23.439840,14.72877816,.00167936,98.0074,262.5304,204.6785,155.3621,0,U,64899,999,5054,.1397844E-3,.847E-5,0
CO3D 3,2025-156B,2026-07-04T16:42:57.228480,15.20218208,.00018459,97.4326,264.1379,107.8204,252.3233,0,U,64900,999,5219,.37879406E-3,.8145E-4,0
CO3D 4,2025-156C,2026-07-04T16:43:09.810912,15.20210069,.00009224,97.4336,264.1381,176.2100,183.9142,0,U,64901,999,5219,.93209132E-4,.1951E-4,0
CO3D 2,2025-156D,2026-07-05T04:33:26.000064,15.20212997,.00014352,97.4327,264.5230,92.0791,268.0609,0,U,64902,999,5226,.30461726E-3,.6535E-4,0
CO3D 1,2025-156E,2026-07-04T15:55:22.689120,15.20212086,.00014502,97.4328,264.0039,103.2236,256.9161,0,U,64903,999,5218,.29116748E-3,.6243E-4,0
PRSC-S1,2025-164A,2026-07-05T07:06:12.965760,15.06584871,.00052053,41.1291,185.8122,126.4210,233.7084,0,U,65055,999,5116,.2812956E-3,.4064E-4,0
SENTINEL-6B,2025-264A,2026-07-04T17:32:37.816800,12.80930074,.00079163,66.0414,98.7411,268.9242,91.0867,0,U,66514,999,2941,.11456746E-3,-.35E-6,0
CAS500-3,2025-274F,2026-07-04T18:17:47.056416,14.88367985,.00068086,97.7441,113.4137,65.3630,294.8296,0,U,66655,999,3276,.21237234E-3,.1914E-4,0
CSG-3,2026-001A,2026-07-05T02:08:36.378816,14.82147933,.00014357,97.8892,9.4321,90.9905,269.1473,0,U,67304,999,2711,.84353327E-4,.619E-5,0
PRSC-E03,2026-092A,2026-07-04T21:11:52.799136,15.06772019,.00036933,38.0022,345.3246,183.2801,176.7937,0,U,68835,999,1062,.31208611E-3,.4628E-4,0
CAS500-2,2026-100AK,2026-07-05T05:56:32.877600,15.20821614,.00085672,97.3877,83.7643,332.8073,27.2713,0,U,69013,999,955,.49931019E-3,.10964E-3,0
