IONOSFERA-M 2           
1 61736U 24199B   26186.23146127  .00000085  00000+0  57637-4 0  9991
2 61736  98.7149  59.1217 0000351  66.7847 293.3368 14.22761220133395
PRSC-EO1                
1 62725U 25012A   26186.32318341  .00010061  00000+0  50194-3 0  9999
2 62725  97.4215 258.4284 0006032 179.3316 180.7927 15.17694349 80940
BIOMASS                 
1 63772U 25090A   26185.96813644  .00001473  00000+0  26824-3 0  9993
2 63772  98.0754  13.0220 0001365  89.8811 270.2550 14.67534765 63297
GOSAT-GW (IBUKI GW)     
1 64694U 25141A   26186.25823457  .00001452  00000+0  26441-3 0  9992
2 64694  98.0567 123.2817 0001412  84.1673 275.9693 14.67552080 54498
IONOSFERA-M 3           
1 64876U 25155A   26186.26532044  .00000059  00000+0  46463-4 0  9998
2 64876  98.6034 147.7160 0001951 127.4569 232.6787 14.21489599 48974
IONOSFERA-M 4           
1 64877U 25155B   26186.30013131  .00000075  00000+0  53927-4 0  9996
2 64877  98.6039 147.6671 0001632 109.2538 250.8817 14.21492044 48971
MICROCARB               
1 64899U 25156A   26185.68082685  .00000847  00000+0  13978-3 0  9999
2 64899  98.0074 262.5304 0016793 204.6785 155.3621 14.72877816 50544
CO3D 3                  
1 64900U 25156B   26185.69649570  .00008145  00000+0  37879-3 0  9990
2 64900  97.4326 264.1379 0001845 107.8204 252.3233 15.20218208 52190
CO3D 4                  
1 64901U 25156C   26185.69664133  .00001951  00000+0  93209-4 0  9991
2 64901  97.4336 264.1381 0000922 176.2100 183.9142 15.20210069 52190
CO3D 2                  
1 64902U 25156D   26186.18988426  .00006535  00000+0  30462-3 0  9995
2 64902  97.4327 264.5230 0001435  92.0791 268.0609 15.20212997 52262
CO3D 1                  
1 64903U 25156E   26185.66345705  .00006243  00000+0  29117-3 0  9996
2 64903  97.4328 264.0039 0001450 103.2236 256.9161 15.20212086 52181
PRSC-S1                 
1 65055U 25164A   26186.29598340  .00004064  00000+0  28130-3 0  9992
2 65055  41.1291 185.8122 0005205 126.4210 233.7084 15.06584871 51161
SENTINEL-6B             
1 66514U 25264A   26185.73099325 -.00000035  00000+0  11457-3 0  9990
2 66514  66.0414  98.7411 0007916 268.9242  91.0867 12.80930074 29412
CAS500-3                
1 66655U 25274F   26185.76235019  .00001914  00000+0  21237-3 0  9995
2 66655  97.7441 113.4137 0006808  65.3630 294.8296 14.88367985 32764
CSG-3                   
1 67304U 26001A   26186.08930994  .00000619  00000+0  84353-4 0  9996
2 67304  97.8892   9.4321 0001435  90.9905 269.1473 14.82147933 27114
PRSC-E03                
1 68835U 26092A   26185.88324999  .00004628  00000+0  31209-3 0  9990
2 68835  38.0022 345.3246 0003693 183.2801 176.7937 15.06772019 10625
CAS500-2                
1 69013U 26100AK  26186.24760275  .00010964  00000+0  49931-3 0  9992
2 69013  97.3877  83.7643 0008567 332.8073  27.2713 15.20821614  9556
